NORAD_CAT_ID,OBJECT_NAME,OBJECT_TYPE,EPOCH,MEAN_MOTION,ECCENTRICITY,INCLINATION,RA_OF_ASC_NODE,ARG_OF_PERICENTER,MEAN_ANOMALY,BSTAR,MEAN_MOTION_DOT,MEAN_MOTION_DDOT,TLE_LINE0,TLE_LINE1,TLE_LINE2,SEMIMAJOR_AXIS,PERIOD,APOGEE,PERIGEE,DECAYED
53252.0,STARLINK-4132,PAYLOAD,2024-04-20 19:16:01,15.08853817,0.0001981,53.217,42.118,85.0881,275.0338,0.0002486,3.672e-05,0.0,0 STARLINK-4132,1 53252U 22086L   24111.80279405  .00003672  00000-0  24860-3 0  9990,2 53252  53.2170  42.1180 0001981  85.0881 275.0338 15.08853817 97035,6917.838,95.437,541.074,538.333,0.0
53252.0,STARLINK-4132,PAYLOAD,2024-04-21 01:37:34,15.08827759,0.0001541,53.2184,40.9227,91.591,268.5259,-0.00039399,-6.551e-05,0.0,0 STARLINK-4132,1 53252U 22086L   24112.06776406 -.00006551  00000-0 -39399-3 0  9996,2 53252  53.2184  40.9227 0001541  91.5910 268.5259 15.08827759 97074,6917.918,95.438,540.849,538.717,0.0
53252.0,STARLINK-4132,PAYLOAD,2024-04-21 04:48:20,15.08830972,0.0001597,53.2193,40.3248,100.3308,259.7864,-0.00030696,-5.169e-05,0.0,0 STARLINK-4132,1 53252U 22086L   24112.20024293 -.00005169  00000-0 -30696-3 0  9997,2 53252  53.2193  40.3248 0001597 100.3308 259.7864 15.08830972 97291,6917.908,95.438,540.878,538.668,0.0
53252.0,STARLINK-4132,PAYLOAD,2024-04-21 19:06:49,15.08840758,0.0001365,53.2182,37.6483,119.5585,240.5543,-0.00017753,-3.112e-05,0.0,0 STARLINK-4132,1 53252U 22086L   24112.79640127 -.00003112  00000-0 -17753-3 0  9996,2 53252  53.2182  37.6483 0001365 119.5585 240.5543 15.08840758 97184,6917.878,95.438,540.687,538.799,0.0
53252.0,STARLINK-4132,PAYLOAD,2024-04-21 22:17:35,15.08841802,0.000134,53.2175,37.0609,119.838,240.2746,-0.00013092,-2.371e-05,0.0,0 STARLINK-4132,1 53252U 22086L   24112.92888109 -.00002371  00000-0 -13092-3 0  9993,2 53252  53.2175  37.0609 0001340 119.8380 240.2746 15.08841802 97407,6917.875,95.437,540.667,538.813,0.0
53252.0,STARLINK-4132,PAYLOAD,2024-04-22 04:39:07,15.08851319,0.0001889,53.2183,35.865,119.4579,240.6602,5.9119e-05,6.53e-06,0.0,0 STARLINK-4132,1 53252U 22086L   24113.19383513  .00000653  00000-0  59119-4 0  9992,2 53252  53.2183  35.8650 0001889 119.4579 240.6602 15.08851319 97243,6917.846,95.437,541.018,538.404,0.0
53252.0,STARLINK-4132,PAYLOAD,2024-04-22 18:57:36,15.08833724,0.0001623,53.2178,33.1862,122.8221,237.2928,0.00028748,4.289e-05,0.0,0 STARLINK-4132,1 53252U 22086L   24113.79000552  .00004289  00000-0  28748-3 0  9999,2 53252  53.2178  33.1862 0001623 122.8221 237.2928 15.08833724 97334,6917.9,95.438,540.887,538.642,0.0
53252.0,STARLINK-4132,PAYLOAD,2024-04-22 22:08:22,15.08830191,0.0001827,53.2184,32.5911,127.1175,232.9985,0.0002009,2.91e-05,0.0,0 STARLINK-4132,1 53252U 22086L   24113.92248764  .00002910  00000-0  20090-3 0  9994,2 53252  53.2184  32.5911 0001827 127.1175 232.9985 15.08830191 97555,6917.91,95.438,541.039,538.511,0.0
53252.0,STARLINK-4132,PAYLOAD,2024-04-22 23:43:46,15.0882852,0.0001721,53.2184,32.2936,130.0172,230.0972,0.00016316,2.309e-05,0.0,0 STARLINK-4132,1 53252U 22086L   24113.98872864  .00002309  00000-0  16316-3 0  9992,2 53252  53.2184  32.2936 0001721 130.0172 230.0972 15.08828520 97369,6917.915,95.438,540.971,538.59,0.0
53252.0,STARLINK-4132,PAYLOAD,2024-04-23 21:59:10,15.08835082,0.0001546,53.2196,28.135,116.8393,243.2757,-2.498e-05,-6.85e-06,0.0,0 STARLINK-4132,1 53252U 22086L   24114.91609107 -.00000685  00000-0 -24980-4 0  9998,2 53252  53.2196  28.1350 0001546 116.8393 243.2757 15.08835082 97704,6917.895,95.438,540.83,538.691,0.0
53252.0,STARLINK-4132,PAYLOAD,2024-04-24 04:20:42,15.08842499,0.0001716,53.2183,26.9424,120.4821,239.6341,6.4071e-05,7.32e-06,0.0,0 STARLINK-4132,1 53252U 22086L   24115.18104698  .00000732  00000-0  64071-4 0  9999,2 53252  53.2183  26.9424 0001716 120.4821 239.6341 15.08842499 97544,6917.873,95.437,540.925,538.551,0.0
53252.0,STARLINK-4132,PAYLOAD,2024-04-24 21:49:57,15.08836912,0.0001345,53.2175,23.6704,104.3289,255.7852,0.00038958,5.917e-05,0.0,0 STARLINK-4132,1 53252U 22086L   24115.90969172  .00005917  00000-0  38958-3 0  9999,2 53252  53.2175  23.6704 0001345 104.3289 255.7852 15.08836912 97850,6917.89,95.438,540.685,538.824,0.0
53252.0,STARLINK-4132,PAYLOAD,2024-04-25 02:36:07,15.08835001,0.0001299,53.2172,22.7782,92.3381,267.776,0.00061555,9.521e-05,0.0,0 STARLINK-4132,1 53252U 22086L   24116.10841517  .00009521  00000-0  61555-3 0  9998,2 53252  53.2172  22.7782 0001299  92.3381 267.7760 15.08835001 97680,6917.896,95.438,540.659,538.862,0.0
53252.0,STARLINK-4132,PAYLOAD,2024-04-25 21:40:44,15.08840556,0.0001968,53.2176,19.2161,78.302,281.8193,-7.2849e-06,-4.04e-06,0.0,0 STARLINK-4132,1 53252U 22086L   24116.90329198 -.00000404  00000-0 -72849-5 0  9995,2 53252  53.2176  19.2161 0001968  78.3020 281.8193 15.08840556 98008,6917.879,95.438,541.105,538.382,0.0
53252.0,STARLINK-4132,PAYLOAD,2024-04-26 10:23:48,15.08867162,0.0001358,53.218,16.8337,82.2085,277.9062,0.00039633,6.03e-05,0.0,0 STARLINK-4132,1 53252U 22086L   24117.43319564  .00006030  00000-0  39633-3 0  9991,2 53252  53.2180  16.8337 0001358  82.2085 277.9062 15.08867162 97887,6917.797,95.436,540.602,538.723,0.0
53252.0,STARLINK-4132,PAYLOAD,2024-04-26 21:31:31,15.08828324,0.0001374,53.2182,14.7577,94.8696,265.2453,-8.9731e-05,-1.715e-05,0.0,0 STARLINK-4132,1 53252U 22086L   24117.89689378 -.00001715  00000-0 -89731-4 0  9996,2 53252  53.2182  14.7577 0001374  94.8696 265.2453 15.08828324 98159,6917.916,95.438,540.732,538.831,0.0
53252.0,STARLINK-4132,PAYLOAD,2024-04-27 02:17:40,15.08848479,0.0001437,53.2182,13.8654,106.7445,253.3705,0.00020462,2.971e-05,0.0,0 STARLINK-4132,1 53252U 22086L   24118.09560469  .00002971  00000-0  20462-3 0  9996,2 53252  53.2182  13.8654 0001437 106.7445 253.3705 15.08848479 97981,6917.854,95.437,540.714,538.725,0.0
53252.0,STARLINK-4132,PAYLOAD,2024-04-27 10:14:35,15.08864454,0.0001324,53.2167,12.3806,58.8855,301.2267,0.0003559,5.384e-05,0.0,0 STARLINK-4132,1 53252U 22086L   24118.42679444  .00005384  00000-0  35590-3 0  9996,2 53252  53.2167  12.3806 0001324  58.8855 301.2267 15.08864454 98038,6917.806,95.436,540.587,538.755,0.0
53252.0,STARLINK-4132,PAYLOAD,2024-04-27 16:36:09,15.08820633,0.0001068,53.2173,11.1902,104.066,256.0451,-0.00042057,-6.971e-05,0.0,0 STARLINK-4132,1 53252U 22086L   24118.69177850 -.00006971  00000-0 -42057-3 0  9990,2 53252  53.2173  11.1902 0001068 104.0660 256.0451 15.08820633 98079,6917.94,95.439,540.543,539.066,0.0
53252.0,STARLINK-4132,PAYLOAD,2024-04-27 22:57:42,15.08822355,8.63e-05,53.2159,10.0025,85.0209,275.0881,-0.00031492,-5.294e-05,0.0,0 STARLINK-4132,1 53252U 22086L   24118.95673752 -.00005294  00000-0 -31492-3 0  9999,2 53252  53.2159  10.0025 0000863  85.0209 275.0881 15.08822355 98314,6917.934,95.439,540.396,539.202,0.0
53252.0,STARLINK-4132,PAYLOAD,2024-04-28 02:08:28,15.08835413,0.0001267,53.2181,9.4043,102.7253,257.3881,-0.00012003,-2.197e-05,0.0,0 STARLINK-4132,1 53252U 22086L   24119.08921444 -.00002197  00000-0 -12003-3 0  9994,2 53252  53.2181   9.4043 0001267 102.7253 257.3881 15.08835413 98138,6917.894,95.438,540.636,538.883,0.0
53252.0,STARLINK-4132,PAYLOAD,2024-04-28 10:05:23,15.088345,0.0001627,53.2201,7.9192,85.1585,274.9593,4.946e-06,-2.09e-06,0.0,0 STARLINK-4132,1 53252U 22086L   24119.42041474 -.00000209  00000-0  49460-5 0  9998,2 53252  53.2201   7.9192 0001627  85.1585 274.9593 15.08834500 98389,6917.897,95.438,540.888,538.637,0.0
53252.0,STARLINK-4132,PAYLOAD,2024-04-28 22:48:29,15.08839127,0.0001499,53.2191,5.5385,87.0122,273.1042,0.00028694,4.282e-05,0.0,0 STARLINK-4132,1 53252U 22086L   24119.95033589  .00004282  00000-0  28694-3 0  9992,2 53252  53.2191   5.5385 0001499  87.0122 273.1042 15.08839127 98469,6917.883,95.438,540.785,538.711,0.0
53252.0,STARLINK-4132,PAYLOAD,2024-04-29 09:56:10,15.08848549,0.0001512,53.2193,3.4567,89.7732,270.3433,0.00033022,4.973e-05,0.0,0 STARLINK-4132,1 53252U 22086L   24120.41401234  .00004973  00000-0  33022-3 0  9999,2 53252  53.2193   3.4567 0001512  89.7732 270.3433 15.08848549 98339,6917.854,95.437,540.765,538.673,0.0
53252.0,STARLINK-4132,PAYLOAD,2024-04-29 21:03:53,15.08839366,0.0001559,53.2182,1.3756,92.0294,268.0877,0.0003261,4.906e-05,0.0,0 STARLINK-4132,1 53252U 22086L   24120.87769714  .00004906  00000-0  32610-3 0  9997,2 53252  53.2182   1.3756 0001559  92.0294 268.0877 15.08839366 98406,6917.882,95.438,540.826,538.669,0.0
53252.0,STARLINK-4132,PAYLOAD,2024-04-29 22:39:16,15.08841427,0.0001736,53.216,1.0796,79.6719,280.4468,0.00029124,4.35e-05,0.0,0 STARLINK-4132,1 53252U 22086L   24120.94393777  .00004350  00000-0  29124-3 0  9996,2 53252  53.2160   1.0796 0001736  79.6719 280.4468 15.08841427 98611,6917.876,95.437,540.942,538.54,0.0
53252.0,STARLINK-4132,PAYLOAD,2024-04-30 22:30:02,15.08844982,0.0001386,53.2179,356.6177,81.4867,278.6282,0.00016343,2.314e-05,0.0,0 STARLINK-4132,1 53252U 22086L   24121.93753325  .00002314  00000-0  16343-3 0  9992,2 53252  53.2179 356.6177 0001386  81.4867 278.6282 15.08844982 98767,6917.865,95.437,540.689,538.771,0.0
53252.0,STARLINK-4132,PAYLOAD,2024-05-01 08:02:21,15.08854948,0.0001369,53.2192,354.8339,80.2844,279.8303,0.00029148,4.356e-05,0.0,0 STARLINK-4132,1 53252U 22086L   24122.33496813  .00004356  00000-0  29148-3 0  9998,2 53252  53.2192 354.8339 0001369  80.2844 279.8303 15.08854948 98822,6917.835,95.437,540.647,538.753,0.0
53252.0,STARLINK-4132,PAYLOAD,2024-05-01 22:20:50,15.08837942,0.0001525,53.2211,352.1606,85.4751,274.6415,9.7665e-07,-2.72e-06,0.0,0 STARLINK-4132,1 53252U 22086L   24122.93113496 -.00000272  00000-0  97665-6 0  9993,2 53252  53.2211 352.1606 0001525  85.4751 274.6415 15.08837942 98912,6917.887,95.438,540.807,538.697,0.0
53252.0,STARLINK-4132,PAYLOAD,2024-05-02 07:53:08,15.08844891,0.0001758,53.2189,350.3729,83.3308,276.7884,9.9342e-05,1.293e-05,0.0,0 STARLINK-4132,1 53252U 22086L   24123.32857123  .00001293  00000-0  99342-4 0  9994,2 53252  53.2189 350.3729 0001758  83.3308 276.7884 15.08844891 98975,6917.865,95.437,540.947,538.514,0.0
